{
  "type": "FeatureCollection",
  "features": [
    {
      "type": "Feature",
      "properties": {
        "norad_id": 40730,
        "name": "GPS BIIF-10 (PRN 08)",
        "group": "gps-ops",
        "lat": 27.542709013446498,
        "lon": 72.52862909312924,
        "alt_km": 20316.319253233014,
        "timestamp": "2025-12-14T22:38:41.017006+00:00",
        "meta_object_name": "GPS BIIF-10 (PRN 08)",
        "meta_object_id": "2015-033A",
        "meta_epoch": "2025-12-13T17:56:39.615936",
        "meta_mean_motion": 2.00565613,
        "meta_eccentricity": 0.0111033,
        "meta_inclination": 54.1297,
        "meta_ra_of_asc_node": 274.7313,
        "meta_arg_of_pericenter": 26.8305,
        "meta_mean_anomaly": 333.7529,
        "meta_ephemeris_type": 0,
        "meta_classification_type": "U",
        "meta_norad_cat_id": 40730,
        "meta_element_set_no": 999,
        "meta_rev_at_epoch": 7627,
        "meta_bstar": 0,
        "meta_mean_motion_dot": -7.4e-07,
        "meta_mean_motion_ddot": 0,
        "tle_line1": "1 40730U 15033A   25347.74768074 -.00000074  00000+0  00000+0 0  9990",
        "tle_line2": "2 40730  54.1297 274.7313 0111033  26.8305 333.7529  2.00565613 76276"
      },
      "geometry": {
        "type": "Point",
        "coordinates": [
          72.52862909312924,
          27.542709013446498
        ]
      }
    },
    {
      "type": "Feature",
      "properties": {
        "norad_id": 41019,
        "name": "GPS BIIF-11 (PRN 10)",
        "group": "gps-ops",
        "lat": 55.848941247738004,
        "lon": 143.52552322797177,
        "alt_km": 20368.3507763471,
        "timestamp": "2025-12-14T22:38:41.017017+00:00",
        "meta_object_name": "GPS BIIF-11 (PRN 10)",
        "meta_object_id": "2015-062A",
        "meta_epoch": "2025-12-12T19:26:17.014560",
        "meta_mean_motion": 2.00567164,
        "meta_eccentricity": 0.01108438,
        "meta_inclination": 56.8322,
        "meta_ra_of_asc_node": 37.9995,
        "meta_arg_of_pericenter": 229.9503,
        "meta_mean_anomaly": 129.1214,
        "meta_ephemeris_type": 0,
        "meta_classification_type": "U",
        "meta_norad_cat_id": 41019,
        "meta_element_set_no": 999,
        "meta_rev_at_epoch": 7409,
        "meta_bstar": 0,
        "meta_mean_motion_dot": -9.6e-07,
        "meta_mean_motion_ddot": 0,
        "tle_line1": "1 41019U 15062A   25346.80991915 -.00000096  00000+0  00000+0 0  9995",
        "tle_line2": "2 41019  56.8322  37.9995 0110843 229.9503 129.1214  2.00567164 74093"
      },
      "geometry": {
        "type": "Point",
        "coordinates": [
          143.52552322797177,
          55.848941247738004
        ]
      }
    },
    {
      "type": "Feature",
      "properties": {
        "norad_id": 41328,
        "name": "GPS BIIF-12 (PRN 32)",
        "group": "gps-ops",
        "lat": 32.288066102160606,
        "lon": 122.58509317174511,
        "alt_km": 20403.20143875023,
        "timestamp": "2025-12-14T22:38:41.017028+00:00",
        "meta_object_name": "GPS BIIF-12 (PRN 32)",
        "meta_object_id": "2016-007A",
        "meta_epoch": "2025-12-13T09:23:04.524576",
        "meta_mean_motion": 2.00560713,
        "meta_eccentricity": 0.00921862,
        "meta_inclination": 55.4066,
        "meta_ra_of_asc_node": 96.8311,
        "meta_arg_of_pericenter": 243.5856,
        "meta_mean_anomaly": 115.4531,
        "meta_ephemeris_type": 0,
        "meta_classification_type": "U",
        "meta_norad_cat_id": 41328,
        "meta_element_set_no": 999,
        "meta_rev_at_epoch": 7211,
        "meta_bstar": 0,
        "meta_mean_motion_dot": -1.9e-07,
        "meta_mean_motion_ddot": 0,
        "tle_line1": "1 41328U 16007A   25347.39102459 -.00000019  00000+0  00000+0 0  9995",
        "tle_line2": "2 41328  55.4066  96.8311 0092186 243.5856 115.4531  2.00560713 72118"
      },
      "geometry": {
        "type": "Point",
        "coordinates": [
          122.58509317174511,
          32.288066102160606
        ]
      }
    },
    {
      "type": "Feature",
      "properties": {
        "norad_id": 43873,
        "name": "GPS BIII-1  (PRN 04)",
        "group": "gps-ops",
        "lat": -48.363148705444296,
        "lon": 49.02245935377429,
        "alt_km": 20205.599350445238,
        "timestamp": "2025-12-14T22:38:41.017044+00:00",
        "meta_object_name": "GPS BIII-1  (PRN 04)",
        "meta_object_id": "2018-109A",
        "meta_epoch": "2025-12-12T07:06:10.304640",
        "meta_mean_motion": 2.00553613,
        "meta_eccentricity": 0.0037314,
        "meta_inclination": 55.5671,
        "meta_ra_of_asc_node": 99.5642,
        "meta_arg_of_pericenter": 194.9554,
        "meta_mean_anomaly": 348.038,
        "meta_ephemeris_type": 0,
        "meta_classification_type": "U",
        "meta_norad_cat_id": 43873,
        "meta_element_set_no": 999,
        "meta_rev_at_epoch": 5132,
        "meta_bstar": 0,
        "meta_mean_motion_dot": -2e-08,
        "meta_mean_motion_ddot": 0,
        "tle_line1": "1 43873U 18109A   25346.29595260 -.00000002  00000+0  00000+0 0  9993",
        "tle_line2": "2 43873  55.5671  99.5642 0037314 194.9554 348.0380  2.00553613 51328"
      },
      "geometry": {
        "type": "Point",
        "coordinates": [
          49.02245935377429,
          -48.363148705444296
        ]
      }
    },
    {
      "type": "Feature",
      "properties": {
        "norad_id": 44506,
        "name": "GPS BIII-2  (PRN 18)",
        "group": "gps-ops",
        "lat": -9.567874106109265,
        "lon": 165.06035475514977,
        "alt_km": 20031.513858805793,
        "timestamp": "2025-12-14T22:38:41.017067+00:00",
        "meta_object_name": "GPS BIII-2  (PRN 18)",
        "meta_object_id": "2019-056A",
        "meta_epoch": "2025-12-11T10:12:28.532736",
        "meta_mean_motion": 2.00566237,
        "meta_eccentricity": 0.00577517,
        "meta_inclination": 55.7218,
        "meta_ra_of_asc_node": 338.6041,
        "meta_arg_of_pericenter": 198.4885,
        "meta_mean_anomaly": 332.8185,
        "meta_ephemeris_type": 0,
        "meta_classification_type": "U",
        "meta_norad_cat_id": 44506,
        "meta_element_set_no": 999,
        "meta_rev_at_epoch": 4630,
        "meta_bstar": 0,
        "meta_mean_motion_dot": -8.7e-07,
        "meta_mean_motion_ddot": 0,
        "tle_line1": "1 44506U 19056A   25345.42533024 -.00000087  00000+0  00000+0 0  9996",
        "tle_line2": "2 44506  55.7218 338.6041 0057751 198.4885 332.8185  2.00566237 46306"
      },
      "geometry": {
        "type": "Point",
        "coordinates": [
          165.06035475514977,
          -9.567874106109265
        ]
      }
    },
    {
      "type": "Feature",
      "properties": {
        "norad_id": 45854,
        "name": "GPS BIII-3  (PRN 23)",
        "group": "gps-ops",
        "lat": 36.1348764420575,
        "lon": -172.71883240712722,
        "alt_km": 20118.3135740339,
        "timestamp": "2025-12-14T22:38:41.017080+00:00",
        "meta_object_name": "GPS BIII-3  (PRN 23)",
        "meta_object_id": "2020-041A",
        "meta_epoch": "2025-12-11T05:23:02.925024",
        "meta_mean_motion": 2.00561914,
        "meta_eccentricity": 0.006046,
        "meta_inclination": 56.5461,
        "meta_ra_of_asc_node": 36.2442,
        "meta_arg_of_pericenter": 203.3747,
        "meta_mean_anomaly": 126.9066,
        "meta_ephemeris_type": 0,
        "meta_classification_type": "U",
        "meta_norad_cat_id": 45854,
        "meta_element_set_no": 999,
        "meta_rev_at_epoch": 4026,
        "meta_bstar": 0,
        "meta_mean_motion_dot": -9.4e-07,
        "meta_mean_motion_ddot": 0,
        "tle_line1": "1 45854U 20041A   25345.22433941 -.00000094  00000+0  00000+0 0  9992",
        "tle_line2": "2 45854  56.5461  36.2442 0060460 203.3747 126.9066  2.00561914 40268"
      },
      "geometry": {
        "type": "Point",
        "coordinates": [
          -172.71883240712722,
          36.1348764420575
        ]
      }
    },
    {
      "type": "Feature",
      "properties": {
        "norad_id": 46826,
        "name": "GPS BIII-4  (PRN 14)",
        "group": "gps-ops",
        "lat": 51.08495653566305,
        "lon": -25.821954632725813,
        "alt_km": 20197.30754867067,
        "timestamp": "2025-12-14T22:38:41.017091+00:00",
        "meta_object_name": "GPS BIII-4  (PRN 14)",
        "meta_object_id": "2020-078A",
        "meta_epoch": "2025-12-14T01:09:53.243424",
        "meta_mean_motion": 2.00566845,
        "meta_eccentricity": 0.00646944,
        "meta_inclination": 54.0148,
        "meta_ra_of_asc_node": 218.2878,
        "meta_arg_of_pericenter": 203.3789,
        "meta_mean_anomaly": 337.0956,
        "meta_ephemeris_type": 0,
        "meta_classification_type": "U",
        "meta_norad_cat_id": 46826,
        "meta_element_set_no": 999,
        "meta_rev_at_epoch": 3779,
        "meta_bstar": 0,
        "meta_mean_motion_dot": 4.1e-07,
        "meta_mean_motion_ddot": 0,
        "tle_line1": "1 46826U 20078A   25348.04853291  .00000041  00000+0  00000+0 0  9990",
        "tle_line2": "2 46826  54.0148 218.2878 0064694 203.3789 337.0956  2.00566845 37792"
      },
      "geometry": {
        "type": "Point",
        "coordinates": [
          -25.821954632725813,
          51.08495653566305
        ]
      }
    }
  ]
}